[{"OBJECT_NAME":"STARLINK-5873","OBJECT_ID":"2023-064AU","EPOCH":"2026-03-09T12:31:33.784320","MEAN_MOTION":14.98330535,"ECCENTRICITY":0.00031595,"INCLINATION":69.9993,"RA_OF_ASC_NODE":105.0315,"ARG_OF_PERICENTER":267.7061,"MEAN_ANOMALY":92.3736,"EPHEMERIS_TYPE":0,"CLASSIFICATION_TYPE":"U","NORAD_CAT_ID":56490,"ELEMENT_SET_NO":999,"REV_AT_EPOCH":15620,"BSTAR":-2.2748139e-5,"MEAN_MOTION_DOT":-3.64e-6,"MEAN_MOTION_DDOT":0},{"OBJECT_NAME":"GNOMES-4","OBJECT_ID":"2023-185A","EPOCH":"2026-03-09T23:48:26.932032","MEAN_MOTION":15.00198915,"ECCENTRICITY":0.000923,"INCLINATION":97.5118,"RA_OF_ASC_NODE":129.6992,"ARG_OF_PERICENTER":282.2655,"MEAN_ANOMALY":77.7535,"EPHEMERIS_TYPE":0,"CLASSIFICATION_TYPE":"U","NORAD_CAT_ID":58462,"ELEMENT_SET_NO":999,"REV_AT_EPOCH":12441,"BSTAR":0.00042532845,"MEAN_MOTION_DOT":5.265e-5,"MEAN_MOTION_DDOT":0}]
